[{"OBJECT_NAME":"NUSAT-44 (MARIA MITCHELL)","OBJECT_ID":"2024-043AA","EPOCH":"2026-03-09T22:12:18.524160","MEAN_MOTION":15.29764305,"ECCENTRICITY":0.0007331,"INCLINATION":97.5299,"RA_OF_ASC_NODE":207.7691,"ARG_OF_PERICENTER":214.9017,"MEAN_ANOMALY":145.1743,"EPHEMERIS_TYPE":0,"CLASSIFICATION_TYPE":"U","NORAD_CAT_ID":59122,"ELEMENT_SET_NO":999,"REV_AT_EPOCH":11209,"BSTAR":0.00061063193,"MEAN_MOTION_DOT":0.00017562,"MEAN_MOTION_DDOT":0},{"OBJECT_NAME":"STARLINK-35811","OBJECT_ID":"2025-270J","EPOCH":"2026-03-09T08:57:22.771008","MEAN_MOTION":15.27587209,"ECCENTRICITY":0.00010952,"INCLINATION":43.0034,"RA_OF_ASC_NODE":58.3,"ARG_OF_PERICENTER":287.3738,"MEAN_ANOMALY":72.6994,"EPHEMERIS_TYPE":0,"CLASSIFICATION_TYPE":"U","NORAD_CAT_ID":66596,"ELEMENT_SET_NO":999,"REV_AT_EPOCH":1776,"BSTAR":0.001520372,"MEAN_MOTION_DOT":0.00041822,"MEAN_MOTION_DDOT":0}]
